ONEWEB-0558             
1 56059U 23043P   25191.74905538  .00000043  00000+0  73367-4 0  9992
2 56059  87.9278 312.0948 0002327  92.3191 267.8210 13.21824176113134
ONEWEB-0559             
1 56060U 23043Q   25191.81372938  .00000027  00000+0  34107-4 0  9995
2 56060  87.9278 312.0739 0002348 101.9962 258.1435 13.21825704113152
ONEWEB-0566             
1 56061U 23043R   25191.73172753 -.00000036  00000+0 -11861-3 0  9993
2 56061  87.9273 312.0889 0002274  97.6127 262.5265 13.21825816113127
ONEWEB-0568             
1 56062U 23043S   25191.70859292 -.00000065  00000+0 -20262-3 0  9998
2 56062  87.9063 296.8262 0001707  98.1100 262.0225 13.16593793114049
ONEWEB-0574             
1 56063U 23043T   25191.72541561 -.00000049  00000+0 -15134-3 0  9992
2 56063  87.9275 312.0780 0001879 105.9696 254.1645 13.21825172113163
ONEWEB-0575             
1 56064U 23043U   25191.70225998 -.00000022  00000+0 -90297-4 0  9999
2 56064  87.9057 296.8361 0001716 112.5233 247.6080 13.16594402114037
ONEWEB-0576             
1 56065U 23043V   25191.75924880 -.00000004  00000+0 -42867-4 0  9991
2 56065  87.9058 296.8157 0001727 100.9877 259.1448 13.16595004114034
ONEWEB-0577             
1 56066U 23043W   25191.76557839 -.00000014  00000+0 -69710-4 0  9996
2 56066  87.9064 296.8136 0001712 120.6962 239.4337 13.16593425114063
